{
  "type": "FeatureCollection",
  "features": [
    {"type":"Feature","geometry":{"type":"Point","coordinates":[9.578582,54.538096]},"properties":{"number":"01","company":"Foras GmbH Schleswig","street":"Werner-von-Siemens-Straße 1","postal_code":"24837","city":"Schleswig","bundesland":"Schleswig-Holstein","latitude":54.538096,"longitude":9.578582,"type":"Dealer","pin_color":"red","verification_status":"VERIFIED_NORMALIZED","precision":"rooftop"}},
    {"type":"Feature","geometry":{"type":"Point","coordinates":[10.031375,53.686847]},"properties":{"number":"02","company":"Foras GmbH Norderstedt","street":"Segeberger Chaussee 188a","postal_code":"22851","city":"Norderstedt","bundesland":"Schleswig-Holstein","latitude":53.686847,"longitude":10.031375,"type":"Dealer","pin_color":"red","verification_status":"VERIFIED","precision":"rooftop"}},
    {"type":"Feature","geometry":{"type":"Point","coordinates":[9.090894,53.627524]},"properties":{"number":"03","company":"Foras GmbH Lamstedt","street":"Bremervörder Straße 57","postal_code":"21769","city":"Lamstedt","bundesland":"Niedersachsen","latitude":53.627524,"longitude":9.090894,"type":"Dealer","pin_color":"red","verification_status":"VERIFIED","precision":"rooftop"}},
    {"type":"Feature","geometry":{"type":"Point","coordinates":[9.293594,53.278009]},"properties":{"number":"04","company":"Foras GmbH Zeven","street":"Zum Hochkamp 2","postal_code":"27404","city":"Zeven","bundesland":"Niedersachsen","latitude":53.278009,"longitude":9.293594,"type":"Dealer","pin_color":"red","verification_status":"VERIFIED","precision":"rooftop"}},
    {"type":"Feature","geometry":{"type":"Point","coordinates":[13.232649,52.529405]},"properties":{"number":"05","company":"Gartec GmbH","street":"Freiheit 30","postal_code":"13597","city":"Berlin","bundesland":"Berlin","latitude":52.529405,"longitude":13.232649,"type":"Dealer","pin_color":"red","verification_status":"VERIFIED_BROAD_SEARCH","precision":"rooftop"}},
    {"type":"Feature","geometry":{"type":"Point","coordinates":[9.735103,52.517996]},"properties":{"number":"06","company":"KTB KommunalTechnik Vertriebs GmbH & Co. KG","street":"Langer Acker 23","postal_code":"30900","city":"Wedemark","bundesland":"Niedersachsen","latitude":52.517996,"longitude":9.735103,"type":"Dealer","pin_color":"red","verification_status":"VERIFIED_BROAD_SEARCH","precision":"rooftop"}},
    {"type":"Feature","geometry":{"type":"Point","coordinates":[10.742332,52.069071]},"properties":{"number":"07","company":"Wäterling Industrievertretungen","street":"Hillenweg 8","postal_code":"38325","city":"Roklum","bundesland":"Niedersachsen","latitude":52.069071,"longitude":10.742332,"type":"Dealer","pin_color":"red","verification_status":"VERIFIED_BROAD_SEARCH","precision":"rooftop"}},
    {"type":"Feature","geometry":{"type":"Point","coordinates":[10.84911,51.690176]},"properties":{"number":"08","company":"Nabert Forst- und Gartentechnik","street":"Nordhäuser Straße 2a","postal_code":"38899","city":"Oberharz am Brocken - Hasselfelde","bundesland":"Sachsen-Anhalt","latitude":51.690176,"longitude":10.84911,"type":"Dealer","pin_color":"red","verification_status":"VERIFIED_LOCALITY","precision":"rooftop"}},
    {"type":"Feature","geometry":{"type":"Point","coordinates":[9.911996,51.509148]},"properties":{"number":"09","company":"KomTec GmbH","street":"Raiffeisenstraße 5a","postal_code":"37124","city":"Rosdorf","bundesland":"Niedersachsen","latitude":51.509148,"longitude":9.911996,"type":"Dealer","pin_color":"red","verification_status":"VERIFIED_BROAD_SEARCH","precision":"rooftop"}},
    {"type":"Feature","geometry":{"type":"Point","coordinates":[11.985094,51.376981]},"properties":{"number":"10","company":"Kobatec GmbH","street":"Brandisstraße 7","postal_code":"06217","city":"Merseburg","bundesland":"Sachsen-Anhalt","latitude":51.376981,"longitude":11.985094,"type":"Dealer","pin_color":"red","verification_status":"VERIFIED_NORMALIZED_POSTCODE","precision":"rooftop"}},
    {"type":"Feature","geometry":{"type":"Point","coordinates":[13.15434,51.206543]},"properties":{"number":"11","company":"Teichert GmbH & Co. KG","street":"Sachsenstraße 1","postal_code":"04749","city":"Jahnatal - Ostrau","bundesland":"Sachsen","latitude":51.206543,"longitude":13.15434,"type":"Dealer","pin_color":"red","verification_status":"VERIFIED_LOCALITY_NORMALIZED_POSTCODE","precision":"rooftop"}},
    {"type":"Feature","geometry":{"type":"Point","coordinates":[8.316411,51.185726]},"properties":{"number":"12","company":"Wilmers Kommunaltechnik GmbH","street":"Über den Erlen 7","postal_code":"57392","city":"Schmallenberg-Bad Fredeburg","bundesland":"Nordrhein-Westfalen","latitude":51.185726,"longitude":8.316411,"type":"Dealer","pin_color":"red","verification_status":"VERIFIED_APPROXIMATE_LOCALITY","precision":"approximate"}},
    {"type":"Feature","geometry":{"type":"Point","coordinates":[7.16263,51.184239]},"properties":{"number":"13","company":"Stöber Gartentecknik Gbr","street":"Stockder Straße 90","postal_code":"42857","city":"Remscheid","bundesland":"Nordrhein-Westfalen","latitude":51.184239,"longitude":7.16263,"type":"Dealer","pin_color":"red","verification_status":"VERIFIED_NORMALIZED","precision":"rooftop"}},
    {"type":"Feature","geometry":{"type":"Point","coordinates":[13.540281,51.174483]},"properties":{"number":"14","company":"Klotz-Motorgeräte","street":"Kirchstraße 3","postal_code":"01689","city":"Niederau","bundesland":"Sachsen","latitude":51.174483,"longitude":13.540281,"type":"Service Partner","pin_color":"green","verification_status":"VERIFIED_NORMALIZED","precision":"rooftop"}},
    {"type":"Feature","geometry":{"type":"Point","coordinates":[11.876321,50.970563]},"properties":{"number":"15","company":"Niehle Gmbh","street":"Saasa 26","postal_code":"07607","city":"Eisenberg","bundesland":"Thüringen","latitude":50.970563,"longitude":11.876321,"type":"Service Partner","pin_color":"green","verification_status":"VERIFIED","precision":"rooftop"}},
    {"type":"Feature","geometry":{"type":"Point","coordinates":[13.777474,50.966781]},"properties":{"number":"16","company":"Hummelmühle-Lockwitz GmbH","street":"Hummelmühle 25","postal_code":"01731","city":"Kreischa","bundesland":"Sachsen","latitude":50.966781,"longitude":13.777474,"type":"Dealer","pin_color":"red","verification_status":"VERIFIED_NORMALIZED_POSTCODE","precision":"rooftop"}},
    {"type":"Feature","geometry":{"type":"Point","coordinates":[10.642159,50.857096]},"properties":{"number":"17","company":"Weimer GmbH Schönau","street":"Ortsstraße 47","postal_code":"99887","city":"Georgenthal - Schönau vor dem Walde","bundesland":"Thüringen","latitude":50.857096,"longitude":10.642159,"type":"Dealer","pin_color":"red","verification_status":"VERIFIED_LOCALITY_NORMALIZED","precision":"rooftop"}},
    {"type":"Feature","geometry":{"type":"Point","coordinates":[11.926814,50.823288]},"properties":{"number":"18","company":"Arold Service & Vetrieb GmbH","street":"Windmühlenstraße 13","postal_code":"07589","city":"Münchenbernsdorf","bundesland":"Thüringen","latitude":50.823288,"longitude":11.926814,"type":"Dealer","pin_color":"red","verification_status":"VERIFIED","precision":"rooftop"}},
    {"type":"Feature","geometry":{"type":"Point","coordinates":[8.707149,50.659719]},"properties":{"number":"19","company":"Weimer GmbH Lollar","street":"Wißmarer Straße 32-34","postal_code":"35457","city":"Lollar","bundesland":"Hessen","latitude":50.659719,"longitude":8.707149,"type":"Dealer","pin_color":"red","verification_status":"VERIFIED_RANGE_MIDPOINT","precision":"rooftop_range_midpoint"}},
    {"type":"Feature","geometry":{"type":"Point","coordinates":[8.257395,50.241275]},"properties":{"number":"20","company":"Schlotter GmbH & Co. KG","street":"Hauptstraße 64","postal_code":"65510","city":"Idstein - Wörsdorf","bundesland":"Hessen","latitude":50.241275,"longitude":8.257395,"type":"Dealer","pin_color":"red","verification_status":"VERIFIED_LOCALITY","precision":"rooftop"}},
    {"type":"Feature","geometry":{"type":"Point","coordinates":[8.794591,50.0175]},"properties":{"number":"21","company":"Weimer GmbH Dietzenbach","street":"Hans-Böckler-Straße 1","postal_code":"63128","city":"Dietzenbach","bundesland":"Hessen","latitude":50.0175,"longitude":8.794591,"type":"Dealer","pin_color":"red","verification_status":"VERIFIED","precision":"rooftop"}},
    {"type":"Feature","geometry":{"type":"Point","coordinates":[10.185032,50.009152]},"properties":{"number":"22","company":"A. Amrhein & Söhne","street":"Goethestraße 4","postal_code":"97493","city":"Bergrheinfeld","bundesland":"Bayern","latitude":50.009152,"longitude":10.185032,"type":"Dealer","pin_color":"red","verification_status":"VERIFIED","precision":"rooftop"}},
    {"type":"Feature","geometry":{"type":"Point","coordinates":[10.884977,49.512049]},"properties":{"number":"23","company":"Tiefel Garten + Forstgeräte GmbH","street":"Obermichelbacher Straße 1","postal_code":"90587","city":"Veitsbronn","bundesland":"Bayern","latitude":49.512049,"longitude":10.884977,"type":"Dealer","pin_color":"red","verification_status":"VERIFIED","precision":"rooftop"}},
    {"type":"Feature","geometry":{"type":"Point","coordinates":[6.796618,49.271227]},"properties":{"number":"24","company":"Alexander Borchers","street":"Saarstraße 24","postal_code":"66787","city":"Wadgassen","bundesland":"Saarland","latitude":49.271227,"longitude":6.796618,"type":"Dealer","pin_color":"red","verification_status":"VERIFIED","precision":"rooftop"}},
    {"type":"Feature","geometry":{"type":"Point","coordinates":[9.722652,48.280889]},"properties":{"number":"25","company":"Radi GmbH & Co. Kg","street":"Spitalstraße 10","postal_code":"89584","city":"Ehingen","bundesland":"Baden-Württemberg","latitude":48.280889,"longitude":9.722652,"type":"Dealer","pin_color":"red","verification_status":"VERIFIED_BROAD_SEARCH","precision":"rooftop"}},
    {"type":"Feature","geometry":{"type":"Point","coordinates":[11.736014,48.165399]},"properties":{"number":"26","company":"Widhopf GmbH Garten- und Kt.","street":"Eichendorffstraße 33-35","postal_code":"85609","city":"Aschheim","bundesland":"Bayern","latitude":48.165399,"longitude":11.736014,"type":"Dealer","pin_color":"red","verification_status":"VERIFIED_ADDRESS_RANGE_PROXIMATE","precision":"proximate"}},
    {"type":"Feature","geometry":{"type":"Point","coordinates":[7.821949,48.128736]},"properties":{"number":"27","company":"Grafmüller Meisterbetrieb","street":"Am Elzdamm 56","postal_code":"79312","city":"Emmendingen","bundesland":"Baden-Württemberg","latitude":48.128736,"longitude":7.821949,"type":"Dealer","pin_color":"red","verification_status":"VERIFIED","precision":"rooftop"}}
  ]
}
